STARLINK-36737          
1 67740U 26026V   26052.16668981 -.01797151  92452-3 -46073-2 0  9990
2 67740  97.2703 105.9450 0001475  73.9940 310.4711 15.95403949  2656
STARLINK-36740          
1 67741U 26026W   26052.16668981 -.01742269  87971-3 -42839-2 0  9997
2 67741  97.2698 105.9522 0001469  64.5050 335.8911 15.96175829  2658
STARLINK-36693          
1 67742U 26026X   26052.16668981 -.01782444  91214-3 -45263-2 0  9996
2 67742  97.2702 105.9471 0001410  65.8925 322.2859 15.95580385  2791
STARLINK-36717          
1 67743U 26026Y   26052.16668981 -.01757639  89260-3 -43626-2 0  9994
2 67743  97.2693 105.9503 0001440  66.6526 330.1212 15.96002554  2795
STARLINK-36692          
1 67744U 26026Z   26052.16668981 -.01789405  92117-3 -44864-2 0  9991
2 67744  97.2699 105.9486 0001498  67.1156 325.6495 15.95819056  2659
2026-027A               
1 67746U 26027A   26052.15282720  .00008126  00000+0  40987-3 0  9996
2 67746  97.4886 181.3467 0009228 255.7594 104.2615 15.17359476  1358
2026-027B               
1 67747U 26027B   26052.15223434  .00008015  00000+0  40316-3 0  9997
2 67747  97.4881 181.3468 0009377 258.2999 101.7182 15.17460577  1353
2026-027C               
1 67748U 26027C   26052.15146591  .00005730  00000+0  28834-3 0  9998
2 67748  97.4892 181.3493 0009783 261.4687  98.5438 15.17570349  1351
2026-027D               
1 67749U 26027D   26052.15052998  .00009414  00000+0  46872-3 0  9991
2 67749  97.4888 181.3501 0009594 266.1161  93.8976 15.17763856  1303
2026-027E               
1 67750U 26027E   26052.15046788  .00008001  00000+0  39906-3 0  9994
2 67750  97.4898 181.3516 0008717 267.6255  92.3980 15.17764394  1350
2026-027F               
1 67751U 26027F   26052.15004243  .00013814  00000+0  68342-3 0  9999
2 67751  97.4900 181.3524 0009863 266.9753  93.0352 15.17885394  1357
2026-027G               
1 67752U 26027G   26052.08404673  .00008752  00000+0  43498-3 0  9993
2 67752  97.4893 181.2863 0009050 270.1070  89.9127 15.17853654  1348
