CCSDS_OMM_VERS = 2.0
CREATION_DATE  = 
ORIGINATOR     = 

OBJECT_NAME    = STARLINK-36737
OBJECT_ID      = 2026-026V
CENTER_NAME    = EARTH
REF_FRAME      = TEME
TIME_SYSTEM    = UTC
MEAN_ELEMENT_THEORY = SGP/SGP4

EPOCH          = 2026-02-21T04:00:01.999584
MEAN_MOTION    = 15.95403949
ECCENTRICITY   = .0001475
INCLINATION    = 97.2703
RA_OF_ASC_NODE = 105.9450
ARG_OF_PERICENTER = 73.9940
MEAN_ANOMALY   = 310.4711

EPHEMERIS_TYPE = 0
CLASSIFICATION_TYPE = U
NORAD_CAT_ID   = 67740
ELEMENT_SET_NO = 999
REV_AT_EPOCH   = 265
BSTAR          = -.46073E-2
MEAN_MOTION_DOT = -.1797151E-1
MEAN_MOTION_DDOT = .92452E-3

CCSDS_OMM_VERS = 2.0
CREATION_DATE  = 
ORIGINATOR     = 

OBJECT_NAME    = STARLINK-36740
OBJECT_ID      = 2026-026W
CENTER_NAME    = EARTH
REF_FRAME      = TEME
TIME_SYSTEM    = UTC
MEAN_ELEMENT_THEORY = SGP/SGP4

EPOCH          = 2026-02-21T04:00:01.999584
MEAN_MOTION    = 15.96175829
ECCENTRICITY   = .0001469
INCLINATION    = 97.2698
RA_OF_ASC_NODE = 105.9522
ARG_OF_PERICENTER = 64.5050
MEAN_ANOMALY   = 335.8911

EPHEMERIS_TYPE = 0
CLASSIFICATION_TYPE = U
NORAD_CAT_ID   = 67741
ELEMENT_SET_NO = 999
REV_AT_EPOCH   = 265
BSTAR          = -.42839E-2
MEAN_MOTION_DOT = -.1742269E-1
MEAN_MOTION_DDOT = .87971E-3

CCSDS_OMM_VERS = 2.0
CREATION_DATE  = 
ORIGINATOR     = 

OBJECT_NAME    = STARLINK-36693
OBJECT_ID      = 2026-026X
CENTER_NAME    = EARTH
REF_FRAME      = TEME
TIME_SYSTEM    = UTC
MEAN_ELEMENT_THEORY = SGP/SGP4

EPOCH          = 2026-02-21T04:00:01.999584
MEAN_MOTION    = 15.95580385
ECCENTRICITY   = .000141
INCLINATION    = 97.2702
RA_OF_ASC_NODE = 105.9471
ARG_OF_PERICENTER = 65.8925
MEAN_ANOMALY   = 322.2859

EPHEMERIS_TYPE = 0
CLASSIFICATION_TYPE = U
NORAD_CAT_ID   = 67742
ELEMENT_SET_NO = 999
REV_AT_EPOCH   = 279
BSTAR          = -.45263E-2
MEAN_MOTION_DOT = -.1782444E-1
MEAN_MOTION_DDOT = .91214E-3

CCSDS_OMM_VERS = 2.0
CREATION_DATE  = 
ORIGINATOR     = 

OBJECT_NAME    = STARLINK-36717
OBJECT_ID      = 2026-026Y
CENTER_NAME    = EARTH
REF_FRAME      = TEME
TIME_SYSTEM    = UTC
MEAN_ELEMENT_THEORY = SGP/SGP4

EPOCH          = 2026-02-21T04:00:01.999584
MEAN_MOTION    = 15.96002554
ECCENTRICITY   = .000144
INCLINATION    = 97.2693
RA_OF_ASC_NODE = 105.9503
ARG_OF_PERICENTER = 66.6526
MEAN_ANOMALY   = 330.1212

EPHEMERIS_TYPE = 0
CLASSIFICATION_TYPE = U
NORAD_CAT_ID   = 67743
ELEMENT_SET_NO = 999
REV_AT_EPOCH   = 279
BSTAR          = -.43626E-2
MEAN_MOTION_DOT = -.1757639E-1
MEAN_MOTION_DDOT = .8926E-3

CCSDS_OMM_VERS = 2.0
CREATION_DATE  = 
ORIGINATOR     = 

OBJECT_NAME    = STARLINK-36692
OBJECT_ID      = 2026-026Z
CENTER_NAME    = EARTH
REF_FRAME      = TEME
TIME_SYSTEM    = UTC
MEAN_ELEMENT_THEORY = SGP/SGP4

EPOCH          = 2026-02-21T04:00:01.999584
MEAN_MOTION    = 15.95819056
ECCENTRICITY   = .0001498
INCLINATION    = 97.2699
RA_OF_ASC_NODE = 105.9486
ARG_OF_PERICENTER = 67.1156
MEAN_ANOMALY   = 325.6495

EPHEMERIS_TYPE = 0
CLASSIFICATION_TYPE = U
NORAD_CAT_ID   = 67744
ELEMENT_SET_NO = 999
REV_AT_EPOCH   = 265
BSTAR          = -.44864E-2
MEAN_MOTION_DOT = -.1789405E-1
MEAN_MOTION_DDOT = .92117E-3

CCSDS_OMM_VERS = 2.0
CREATION_DATE  = 
ORIGINATOR     = 

OBJECT_NAME    = 2026-027A
OBJECT_ID      = 2026-027A
CENTER_NAME    = EARTH
REF_FRAME      = TEME
TIME_SYSTEM    = UTC
MEAN_ELEMENT_THEORY = SGP/SGP4

EPOCH          = 2026-02-21T03:40:04.270080
MEAN_MOTION    = 15.17359476
ECCENTRICITY   = .0009228
INCLINATION    = 97.4886
RA_OF_ASC_NODE = 181.3467
ARG_OF_PERICENTER = 255.7594
MEAN_ANOMALY   = 104.2615

EPHEMERIS_TYPE = 0
CLASSIFICATION_TYPE = U
NORAD_CAT_ID   = 67746
ELEMENT_SET_NO = 999
REV_AT_EPOCH   = 135
BSTAR          = .40987E-3
MEAN_MOTION_DOT = .8126E-4
MEAN_MOTION_DDOT = 0

CCSDS_OMM_VERS = 2.0
CREATION_DATE  = 
ORIGINATOR     = 

OBJECT_NAME    = 2026-027B
OBJECT_ID      = 2026-027B
CENTER_NAME    = EARTH
REF_FRAME      = TEME
TIME_SYSTEM    = UTC
MEAN_ELEMENT_THEORY = SGP/SGP4

EPOCH          = 2026-02-21T03:39:13.046976
MEAN_MOTION    = 15.17460577
ECCENTRICITY   = .0009377
INCLINATION    = 97.4881
RA_OF_ASC_NODE = 181.3468
ARG_OF_PERICENTER = 258.2999
MEAN_ANOMALY   = 101.7182

EPHEMERIS_TYPE = 0
CLASSIFICATION_TYPE = U
NORAD_CAT_ID   = 67747
ELEMENT_SET_NO = 999
REV_AT_EPOCH   = 135
BSTAR          = .40316E-3
MEAN_MOTION_DOT = .8015E-4
MEAN_MOTION_DDOT = 0

CCSDS_OMM_VERS = 2.0
CREATION_DATE  = 
ORIGINATOR     = 

OBJECT_NAME    = 2026-027C
OBJECT_ID      = 2026-027C
CENTER_NAME    = EARTH
REF_FRAME      = TEME
TIME_SYSTEM    = UTC
MEAN_ELEMENT_THEORY = SGP/SGP4

EPOCH          = 2026-02-21T03:38:06.654624
MEAN_MOTION    = 15.17570349
ECCENTRICITY   = .0009783
INCLINATION    = 97.4892
RA_OF_ASC_NODE = 181.3493
ARG_OF_PERICENTER = 261.4687
MEAN_ANOMALY   = 98.5438

EPHEMERIS_TYPE = 0
CLASSIFICATION_TYPE = U
NORAD_CAT_ID   = 67748
ELEMENT_SET_NO = 999
REV_AT_EPOCH   = 135
BSTAR          = .28834E-3
MEAN_MOTION_DOT = .573E-4
MEAN_MOTION_DDOT = 0

CCSDS_OMM_VERS = 2.0
CREATION_DATE  = 
ORIGINATOR     = 

OBJECT_NAME    = 2026-027D
OBJECT_ID      = 2026-027D
CENTER_NAME    = EARTH
REF_FRAME      = TEME
TIME_SYSTEM    = UTC
MEAN_ELEMENT_THEORY = SGP/SGP4

EPOCH          = 2026-02-21T03:36:45.790272
MEAN_MOTION    = 15.17763856
ECCENTRICITY   = .0009594
INCLINATION    = 97.4888
RA_OF_ASC_NODE = 181.3501
ARG_OF_PERICENTER = 266.1161
MEAN_ANOMALY   = 93.8976

EPHEMERIS_TYPE = 0
CLASSIFICATION_TYPE = U
NORAD_CAT_ID   = 67749
ELEMENT_SET_NO = 999
REV_AT_EPOCH   = 130
BSTAR          = .46872E-3
MEAN_MOTION_DOT = .9414E-4
MEAN_MOTION_DDOT = 0

CCSDS_OMM_VERS = 2.0
CREATION_DATE  = 
ORIGINATOR     = 

OBJECT_NAME    = 2026-027E
OBJECT_ID      = 2026-027E
CENTER_NAME    = EARTH
REF_FRAME      = TEME
TIME_SYSTEM    = UTC
MEAN_ELEMENT_THEORY = SGP/SGP4

EPOCH          = 2026-02-21T03:36:40.424832
MEAN_MOTION    = 15.17764394
ECCENTRICITY   = .0008717
INCLINATION    = 97.4898
RA_OF_ASC_NODE = 181.3516
ARG_OF_PERICENTER = 267.6255
MEAN_ANOMALY   = 92.3980

EPHEMERIS_TYPE = 0
CLASSIFICATION_TYPE = U
NORAD_CAT_ID   = 67750
ELEMENT_SET_NO = 999
REV_AT_EPOCH   = 135
BSTAR          = .39906E-3
MEAN_MOTION_DOT = .8001E-4
MEAN_MOTION_DDOT = 0

CCSDS_OMM_VERS = 2.0
CREATION_DATE  = 
ORIGINATOR     = 

OBJECT_NAME    = 2026-027F
OBJECT_ID      = 2026-027F
CENTER_NAME    = EARTH
REF_FRAME      = TEME
TIME_SYSTEM    = UTC
MEAN_ELEMENT_THEORY = SGP/SGP4

EPOCH          = 2026-02-21T03:36:03.665952
MEAN_MOTION    = 15.17885394
ECCENTRICITY   = .0009863
INCLINATION    = 97.4900
RA_OF_ASC_NODE = 181.3524
ARG_OF_PERICENTER = 266.9753
MEAN_ANOMALY   = 93.0352

EPHEMERIS_TYPE = 0
CLASSIFICATION_TYPE = U
NORAD_CAT_ID   = 67751
ELEMENT_SET_NO = 999
REV_AT_EPOCH   = 135
BSTAR          = .68342E-3
MEAN_MOTION_DOT = .13814E-3
MEAN_MOTION_DDOT = 0

CCSDS_OMM_VERS = 2.0
CREATION_DATE  = 
ORIGINATOR     = 

OBJECT_NAME    = 2026-027G
OBJECT_ID      = 2026-027G
CENTER_NAME    = EARTH
REF_FRAME      = TEME
TIME_SYSTEM    = UTC
MEAN_ELEMENT_THEORY = SGP/SGP4

EPOCH          = 2026-02-21T02:01:01.637472
MEAN_MOTION    = 15.17853654
ECCENTRICITY   = .000905
INCLINATION    = 97.4893
RA_OF_ASC_NODE = 181.2863
ARG_OF_PERICENTER = 270.1070
MEAN_ANOMALY   = 89.9127

EPHEMERIS_TYPE = 0
CLASSIFICATION_TYPE = U
NORAD_CAT_ID   = 67752
ELEMENT_SET_NO = 999
REV_AT_EPOCH   = 134
BSTAR          = .43498E-3
MEAN_MOTION_DOT = .8752E-4
MEAN_MOTION_DDOT = 0

